NORAD_CAT_ID,OBJECT_NAME,OBJECT_TYPE,EPOCH,MEAN_MOTION,ECCENTRICITY,INCLINATION,RA_OF_ASC_NODE,ARG_OF_PERICENTER,MEAN_ANOMALY,BSTAR,MEAN_MOTION_DOT,MEAN_MOTION_DDOT,TLE_LINE0,TLE_LINE1,TLE_LINE2,SEMIMAJOR_AXIS,PERIOD,APOGEE,PERIGEE,DECAYED
55778.0,STARLINK-5816,PAYLOAD,2023-12-30 14:49:41,14.98327801,0.0002469,70.0005,81.5813,259.7999,100.2882,0.00010941,1.213e-05,0.0,0 STARLINK-5816,1 55778U 23028AP  23364.61784191  .00001213  00000-0  10941-3 0  9997,2 55778  70.0005  81.5813 0002469 259.7999 100.2882 14.98327801 46692,6950.2,96.107,573.781,570.349,0.0
55778.0,STARLINK-5816,PAYLOAD,2023-12-31 11:39:26,14.98325971,0.0002488,70.0011,79.3939,247.1303,112.9594,-4.4529e-05,-6.24e-06,0.0,0 STARLINK-5816,1 55778U 23028AP  23365.48572791 -.00000624  00000-0 -44529-4 0  9991,2 55778  70.0011  79.3939 0002488 247.1303 112.9594 14.98325971 46825,6950.205,96.107,573.8,570.341,0.0
55778.0,STARLINK-5816,PAYLOAD,2023-12-31 14:51:43,14.98324713,0.0002535,70.0007,79.0565,252.0044,108.0839,-4.435e-05,-6.22e-06,0.0,0 STARLINK-5816,1 55778U 23028AP  23365.61924906 -.00000622  00000-0 -44350-4 0  9995,2 55778  70.0007  79.0565 0002535 252.0044 108.0839 14.98324713 46845,6950.209,96.107,573.836,570.312,0.0
55778.0,STARLINK-5816,PAYLOAD,2024-01-01 11:41:27,14.98330742,0.0002793,70.0,76.8674,264.5819,95.5021,4.9563e-05,4.98e-06,0.0,0 STARLINK-5816,1 55778U 23028AP  24001.48712190  .00000498  00000-0  49563-4 0  9998,2 55778  70.0000  76.8674 0002793 264.5819  95.5021 14.98330742 46974,6950.191,96.107,573.997,570.114,0.0
55778.0,STARLINK-5816,PAYLOAD,2024-01-01 13:17:35,14.98331553,0.0002719,70.0002,76.6994,261.6952,98.3898,5.0799e-05,5.13e-06,0.0,0 STARLINK-5816,1 55778U 23028AP  24001.55388117  .00000513  00000-0  50799-4 0  9995,2 55778  70.0002  76.6994 0002719 261.6952  98.3898 14.98331553 46988,6950.188,96.107,573.943,570.163,0.0
55778.0,STARLINK-5816,PAYLOAD,2024-01-01 14:53:43,14.98333604,0.000276,70.0001,76.5311,262.9981,97.0864,2.8539e-05,2.48e-06,0.0,0 STARLINK-5816,1 55778U 23028AP  24001.62064038  .00000248  00000-0  28539-4 0  9998,2 55778  70.0001  76.5311 0002760 262.9981  97.0864 14.98333604 46990,6950.182,96.107,573.965,570.128,0.0
55778.0,STARLINK-5816,PAYLOAD,2024-01-02 11:43:28,14.98330285,0.0002826,70.0001,74.3418,265.3456,94.738,7.1444e-05,7.6e-06,0.0,0 STARLINK-5816,1 55778U 23028AP  24002.48852022  .00000760  00000-0  71444-4 0  9993,2 55778  70.0001  74.3418 0002826 265.3456  94.7380 14.98330285 47126,6950.192,96.107,574.021,570.093,0.0
55778.0,STARLINK-5816,PAYLOAD,2024-01-02 13:19:36,14.98331274,0.0002813,70.0001,74.1735,265.3309,94.7529,8.0964e-05,8.73e-06,0.0,0 STARLINK-5816,1 55778U 23028AP  24002.55527924  .00000873  00000-0  80964-4 0  9993,2 55778  70.0001  74.1735 0002813 265.3309  94.7529 14.98331274 47134,6950.189,96.107,574.009,570.099,0.0
55778.0,STARLINK-5816,PAYLOAD,2024-01-02 14:55:44,14.98332098,0.000282,70.0001,74.0052,265.6911,94.3926,8.7076e-05,9.46e-06,0.0,0 STARLINK-5816,1 55778U 23028AP  24002.62203848  .00000946  00000-0  87076-4 0  9999,2 55778  70.0001  74.0052 0002820 265.6911  94.3926 14.98332098 47148,6950.186,96.107,574.011,570.091,0.0
55778.0,STARLINK-5816,PAYLOAD,2024-01-03 11:45:29,14.98325707,0.0002618,70.0006,71.8171,265.9575,94.1285,-5.5574e-05,-7.56e-06,0.0,0 STARLINK-5816,1 55778U 23028AP  24003.48992703 -.00000756  00000-0 -55574-4 0  9998,2 55778  70.0006  71.8171 0002618 265.9575  94.1285 14.98325707 47273,6950.206,96.107,573.891,570.252,0.0
55778.0,STARLINK-5816,PAYLOAD,2024-01-03 13:21:37,14.98325581,0.0002622,70.0006,71.6488,266.2326,93.8533,-5.6543e-05,-7.67e-06,0.0,0 STARLINK-5816,1 55778U 23028AP  24003.55668728 -.00000767  00000-0 -56543-4 0  9992,2 55778  70.0006  71.6488 0002622 266.2326  93.8533 14.98325581 47288,6950.207,96.107,573.894,570.249,0.0
55778.0,STARLINK-5816,PAYLOAD,2024-01-03 14:57:45,14.98325826,0.0002628,70.0006,71.4805,266.7414,93.3444,-5.3609e-05,-7.32e-06,0.0,0 STARLINK-5816,1 55778U 23028AP  24003.62344720 -.00000732  00000-0 -53609-4 0  9995,2 55778  70.0006  71.4805 0002628 266.7414  93.3444 14.98325826 47297,6950.206,96.107,573.897,570.244,0.0
55778.0,STARLINK-5816,PAYLOAD,2024-01-04 03:46:49,14.98332319,0.0002718,70.0004,70.1336,271.2812,88.8035,4.6734e-06,-3.7e-07,0.0,0 STARLINK-5816,1 55778U 23028AP  24004.15752147 -.00000037  00000-0  46734-5 0  9999,2 55778  70.0004  70.1336 0002718 271.2812  88.8035 14.98332319 47372,6950.186,96.107,573.94,570.162,0.0
55778.0,STARLINK-5816,PAYLOAD,2024-01-04 13:23:38,14.98333206,0.0002734,70.0003,69.1238,270.5235,89.5611,1.5614e-05,9.3e-07,0.0,0 STARLINK-5816,1 55778U 23028AP  24004.55807978  .00000093  00000-0  15614-4 0  9999,2 55778  70.0003  69.1238 0002734 270.5235  89.5611 14.98333206 47430,6950.183,96.107,573.948,570.148,0.0
55778.0,STARLINK-5816,PAYLOAD,2024-01-05 05:24:58,14.98326526,0.0002804,69.9996,67.4402,267.8794,92.2044,4.6723e-05,4.64e-06,0.0,0 STARLINK-5816,1 55778U 23028AP  24005.22568258  .00000464  00000-0  46723-4 0  9996,2 55778  69.9996  67.4402 0002804 267.8794  92.2044 14.98326526 47538,6950.204,96.107,574.017,570.12,0.0
55778.0,STARLINK-5816,PAYLOAD,2024-01-05 13:25:39,14.98326519,0.0002832,69.9996,66.5984,268.2009,91.8826,3.8948e-05,3.72e-06,0.0,0 STARLINK-5816,1 55778U 23028AP  24005.55948338  .00000372  00000-0  38948-4 0  9991,2 55778  69.9996  66.5984 0002832 268.2009  91.8826 14.98326519 47588,6950.204,96.107,574.037,570.1,0.0
55778.0,STARLINK-5816,PAYLOAD,2024-01-06 11:51:32,14.98329174,0.0002831,69.9996,64.2419,267.1461,92.9374,-3.4768e-05,-5.08e-06,0.0,0 STARLINK-5816,1 55778U 23028AP  24006.49412444 -.00000508  00000-0 -34768-4 0  9998,2 55778  69.9996  64.2419 0002831 267.1461  92.9374 14.98329174 47721,6950.195,96.107,574.028,570.093,0.0
55778.0,STARLINK-5816,PAYLOAD,2024-01-06 13:27:40,14.98329706,0.0002829,69.9997,64.0736,267.185,92.8985,-2.8101e-05,-4.28e-06,0.0,0 STARLINK-5816,1 55778U 23028AP  24006.56088396 -.00000428  00000-0 -28101-4 0  9996,2 55778  69.9997  64.0736 0002829 267.1850  92.8985 14.98329706 47730,6950.194,96.107,574.025,570.093,0.0
55778.0,STARLINK-5816,PAYLOAD,2024-01-07 11:53:32,14.98332344,0.0002831,69.9996,61.7172,264.8395,95.2441,6.2708e-05,6.55e-06,0.0,0 STARLINK-5816,1 55778U 23028AP  24007.49551881  .00000655  00000-0  62708-4 0  9994,2 55778  69.9996  61.7172 0002831 264.8395  95.2441 14.98332344 47879,6950.186,96.107,574.018,570.083,0.0
55778.0,STARLINK-5816,PAYLOAD,2024-01-07 13:29:40,14.98334628,0.0002927,69.9995,61.5479,269.675,90.4074,5.2128e-05,5.29e-06,0.0,0 STARLINK-5816,1 55778U 23028AP  24007.56227776  .00000529  00000-0  52128-4 0  9990,2 55778  69.9995  61.5479 0002927 269.6750  90.4074 14.98334628 47887,6950.179,96.107,574.078,570.009,0.0
55778.0,STARLINK-5816,PAYLOAD,2024-01-08 11:55:33,14.98331565,0.0002706,70.0001,59.1931,257.2828,102.8029,4.8662e-05,4.88e-06,0.0,0 STARLINK-5816,1 55778U 23028AP  24008.49691828  .00000488  00000-0  48662-4 0  9998,2 55778  70.0001  59.1931 0002706 257.2828 102.8029 14.98331565 48020,6950.188,96.107,573.934,570.172,0.0
55778.0,STARLINK-5816,PAYLOAD,2024-01-08 13:31:41,14.98332111,0.0002742,70.0,59.0246,259.067,101.0181,5.1048e-05,5.16e-06,0.0,0 STARLINK-5816,1 55778U 23028AP  24008.56367779  .00000516  00000-0  51048-4 0  9995,2 55778  70.0000  59.0246 0002742 259.0670 101.0181 14.98332111 48031,6950.186,96.107,573.957,570.146,0.0
55778.0,STARLINK-5816,PAYLOAD,2024-01-09 11:57:34,14.9833048,0.0002533,70.0004,56.6685,255.2303,104.8575,-1.9051e-05,-3.2e-06,0.0,0 STARLINK-5816,1 55778U 23028AP  24009.49831983 -.00000320  00000-0 -19051-4 0  9994,2 55778  70.0004  56.6685 0002533 255.2303 104.8575 14.98330480 48174,6950.191,96.107,573.817,570.296,0.0
55778.0,STARLINK-5816,PAYLOAD,2024-01-10 05:35:05,14.98308407,0.0002894,70.0003,54.8172,269.5615,90.5212,-0.00025163,-3.092e-05,0.0,0 STARLINK-5816,1 55778U 23028AP  24010.23269752 -.00003092  00000-0 -25163-3 0  9996,2 55778  70.0003  54.8172 0002894 269.5615  90.5212 14.98308407 48283,6950.26,96.108,574.136,570.113,0.0
55778.0,STARLINK-5816,PAYLOAD,2024-01-10 10:23:29,14.98309018,0.0002523,70.0003,54.3119,255.0687,105.0193,-0.0002378,-2.927e-05,0.0,0 STARLINK-5816,1 55778U 23028AP  24010.43297852 -.00002927  00000-0 -23780-3 0  9999,2 55778  70.0003  54.3119 0002523 255.0687 105.0193 14.98309018 48310,6950.258,96.108,573.876,570.369,0.0
55778.0,STARLINK-5816,PAYLOAD,2024-01-11 04:00:57,14.98316399,0.000275,70.0001,52.46,268.9492,91.1352,-9.3542e-05,-1.208e-05,0.0,0 STARLINK-5816,1 55778U 23028AP  24011.16733750 -.00001208  00000-0 -93542-4 0  9997,2 55778  70.0001  52.4600 0002750 268.9492  91.1352 14.98316399 48425,6950.235,96.108,574.011,570.189,0.0
55778.0,STARLINK-5816,PAYLOAD,2024-01-11 12:01:37,14.98322694,0.0002537,70.0001,51.6189,264.4386,95.6483,-2.1158e-05,-3.45e-06,0.0,0 STARLINK-5816,1 55778U 23028AP  24011.50113393 -.00000345  00000-0 -21158-4 0  9995,2 55778  70.0001  51.6189 0002537 264.4386  95.6483 14.98322694 48478,6950.215,96.107,573.844,570.317,0.0
55778.0,STARLINK-5816,PAYLOAD,2024-01-12 04:02:57,14.98323901,0.0003007,69.999,49.9331,272.6122,87.4693,0.00028443,3.302e-05,0.0,0 STARLINK-5816,1 55778U 23028AP  24012.16872361  .00003302  00000-0  28443-3 0  9992,2 55778  69.9990  49.9331 0003007 272.6122  87.4693 14.98323901 48578,6950.212,96.107,574.167,569.987,0.0
55778.0,STARLINK-5816,PAYLOAD,2024-01-12 12:03:37,14.98332356,0.0002865,69.9993,49.0922,270.7375,89.3456,0.00035652,4.164e-05,0.0,0 STARLINK-5816,1 55778U 23028AP  24012.50251703  .00004164  00000-0  35652-3 0  9998,2 55778  69.9993  49.0922 0002865 270.7375  89.3456 14.98332356 48626,6950.186,96.107,574.042,570.059,0.0
55778.0,STARLINK-5816,PAYLOAD,2024-01-13 04:04:58,14.98332272,0.0002581,70.0,47.4096,263.2314,96.8551,8.3649e-05,9.05e-06,0.0,0 STARLINK-5816,1 55778U 23028AP  24013.17012448  .00000905  00000-0  83649-4 0  9992,2 55778  70.0000  47.4096 0002581 263.2314  96.8551 14.98332272 48724,6950.186,96.107,573.845,570.257,0.0
